[{"OBJECT_NAME":"ONEWEB-0151","OBJECT_ID":"2021-025AA","EPOCH":"2025-09-20T00:32:56.144256","MEAN_MOTION":13.1347134,"ECCENTRICITY":0.00016441,"INCLINATION":87.9044,"RA_OF_ASC_NODE":13.8898,"ARG_OF_PERICENTER":104.4262,"MEAN_ANOMALY":255.705,"EPHEMERIS_TYPE":0,"CLASSIFICATION_TYPE":"U","NORAD_CAT_ID":48066,"ELEMENT_SET_NO":999,"REV_AT_EPOCH":21812,"BSTAR":-0.00051406619,"MEAN_MOTION_DOT":-1.75e-6,"MEAN_MOTION_DDOT":0},{"OBJECT_NAME":"ONEWEB-0170","OBJECT_ID":"2021-025AB","EPOCH":"2025-09-20T00:45:07.996320","MEAN_MOTION":13.13469468,"ECCENTRICITY":0.00012328,"INCLINATION":87.9043,"RA_OF_ASC_NODE":13.8947,"ARG_OF_PERICENTER":99.5019,"MEAN_ANOMALY":260.6249,"EPHEMERIS_TYPE":0,"CLASSIFICATION_TYPE":"U","NORAD_CAT_ID":48067,"ELEMENT_SET_NO":999,"REV_AT_EPOCH":21808,"BSTAR":-0.00083804305,"MEAN_MOTION_DOT":-2.93e-6,"MEAN_MOTION_DDOT":0},{"OBJECT_NAME":"ONEWEB-0168","OBJECT_ID":"2021-025AC","EPOCH":"2025-09-20T00:23:10.840416","MEAN_MOTION":13.13469432,"ECCENTRICITY":0.00018083,"INCLINATION":87.9045,"RA_OF_ASC_NODE":13.879,"ARG_OF_PERICENTER":104.8517,"MEAN_ANOMALY":255.2812,"EPHEMERIS_TYPE":0,"CLASSIFICATION_TYPE":"U","NORAD_CAT_ID":48068,"ELEMENT_SET_NO":999,"REV_AT_EPOCH":21809,"BSTAR":-0.00072564179,"MEAN_MOTION_DOT":-2.52e-6,"MEAN_MOTION_DDOT":0},{"OBJECT_NAME":"ONEWEB-0173","OBJECT_ID":"2021-025AD","EPOCH":"2025-09-20T00:10:59.769408","MEAN_MOTION":13.13470993,"ECCENTRICITY":0.00018351,"INCLINATION":87.9047,"RA_OF_ASC_NODE":13.889,"ARG_OF_PERICENTER":114.8762,"MEAN_ANOMALY":245.2558,"EPHEMERIS_TYPE":0,"CLASSIFICATION_TYPE":"U","NORAD_CAT_ID":48069,"ELEMENT_SET_NO":999,"REV_AT_EPOCH":21833,"BSTAR":0.00032819633,"MEAN_MOTION_DOT":1.33e-6,"MEAN_MOTION_DDOT":0},{"OBJECT_NAME":"ONEWEB-0171","OBJECT_ID":"2021-025AE","EPOCH":"2025-09-20T01:04:38.013888","MEAN_MOTION":13.13471668,"ECCENTRICITY":0.00016811,"INCLINATION":87.9033,"RA_OF_ASC_NODE":13.917,"ARG_OF_PERICENTER":102.8852,"MEAN_ANOMALY":257.2465,"EPHEMERIS_TYPE":0,"CLASSIFICATION_TYPE":"U","NORAD_CAT_ID":48070,"ELEMENT_SET_NO":999,"REV_AT_EPOCH":21815,"BSTAR":-0.00065079524,"MEAN_MOTION_DOT":-2.25e-6,"MEAN_MOTION_DDOT":0},{"OBJECT_NAME":"ONEWEB-0172","OBJECT_ID":"2021-025AF","EPOCH":"2025-09-20T00:35:22.370208","MEAN_MOTION":13.13470582,"ECCENTRICITY":0.0001695,"INCLINATION":87.9044,"RA_OF_ASC_NODE":13.8901,"ARG_OF_PERICENTER":106.074,"MEAN_ANOMALY":254.0576,"EPHEMERIS_TYPE":0,"CLASSIFICATION_TYPE":"U","NORAD_CAT_ID":48071,"ELEMENT_SET_NO":999,"REV_AT_EPOCH":21904,"BSTAR":-0.00056144627,"MEAN_MOTION_DOT":-1.92e-6,"MEAN_MOTION_DDOT":0},{"OBJECT_NAME":"ONEWEB-0174","OBJECT_ID":"2021-025AG","EPOCH":"2025-09-19T20:29:09.238560","MEAN_MOTION":13.13468963,"ECCENTRICITY":0.00018934,"INCLINATION":87.9041,"RA_OF_ASC_NODE":13.9356,"ARG_OF_PERICENTER":100.2275,"MEAN_ANOMALY":259.9068,"EPHEMERIS_TYPE":0,"CLASSIFICATION_TYPE":"U","NORAD_CAT_ID":48072,"ELEMENT_SET_NO":999,"REV_AT_EPOCH":21834,"BSTAR":-0.00057689608,"MEAN_MOTION_DOT":-1.98e-6,"MEAN_MOTION_DDOT":0},{"OBJECT_NAME":"ONEWEB-0175","OBJECT_ID":"2021-025AH","EPOCH":"2025-09-20T00:52:26.301792","MEAN_MOTION":13.13471263,"ECCENTRICITY":0.00014583,"INCLINATION":87.9042,"RA_OF_ASC_NODE":13.8641,"ARG_OF_PERICENTER":106.639,"MEAN_ANOMALY":253.49,"EPHEMERIS_TYPE":0,"CLASSIFICATION_TYPE":"U","NORAD_CAT_ID":48073,"ELEMENT_SET_NO":999,"REV_AT_EPOCH":21802,"BSTAR":-0.00073522082,"MEAN_MOTION_DOT":-2.56e-6,"MEAN_MOTION_DDOT":0},{"OBJECT_NAME":"ONEWEB-0177","OBJECT_ID":"2021-025AJ","EPOCH":"2025-09-20T01:09:29.757312","MEAN_MOTION":13.13471892,"ECCENTRICITY":0.00019388,"INCLINATION":87.9046,"RA_OF_ASC_NODE":13.8789,"ARG_OF_PERICENTER":104.7705,"MEAN_ANOMALY":255.3639,"EPHEMERIS_TYPE":0,"CLASSIFICATION_TYPE":"U","NORAD_CAT_ID":48074,"ELEMENT_SET_NO":999,"REV_AT_EPOCH":21821,"BSTAR":-9.8485746e-5,"MEAN_MOTION_DOT":-2.3e-7,"MEAN_MOTION_DDOT":0},{"OBJECT_NAME":"ONEWEB-0178","OBJECT_ID":"2021-025AK","EPOCH":"2025-09-20T01:36:30.478752","MEAN_MOTION":13.13470627,"ECCENTRICITY":0.00016784,"INCLINATION":87.9048,"RA_OF_ASC_NODE":13.9212,"ARG_OF_PERICENTER":109.6989,"MEAN_ANOMALY":250.4322,"EPHEMERIS_TYPE":0,"CLASSIFICATION_TYPE":"U","NORAD_CAT_ID":48075,"ELEMENT_SET_NO":999,"REV_AT_EPOCH":21826,"BSTAR":0.00088544486,"MEAN_MOTION_DOT":3.36e-6,"MEAN_MOTION_DDOT":0},{"OBJECT_NAME":"ONEWEB-0108","OBJECT_ID":"2021-025AL","EPOCH":"2025-09-20T00:37:48.826848","MEAN_MOTION":13.13471096,"ECCENTRICITY":0.00018053,"INCLINATION":87.904,"RA_OF_ASC_NODE":13.8752,"ARG_OF_PERICENTER":92.9431,"MEAN_ANOMALY":267.1905,"EPHEMERIS_TYPE":0,"CLASSIFICATION_TYPE":"U","NORAD_CAT_ID":48076,"ELEMENT_SET_NO":999,"REV_AT_EPOCH":21818,"BSTAR":-0.0006092346,"MEAN_MOTION_DOT":-2.1e-6,"MEAN_MOTION_DDOT":0},{"OBJECT_NAME":"ONEWEB-0169","OBJECT_ID":"2021-025AM","EPOCH":"2025-09-20T01:24:07.535520","MEAN_MOTION":13.13471977,"ECCENTRICITY":0.00018111,"INCLINATION":87.9045,"RA_OF_ASC_NODE":13.8921,"ARG_OF_PERICENTER":94.1124,"MEAN_ANOMALY":266.0212,"EPHEMERIS_TYPE":0,"CLASSIFICATION_TYPE":"U","NORAD_CAT_ID":48077,"ELEMENT_SET_NO":999,"REV_AT_EPOCH":21684,"BSTAR":0.00095528318,"MEAN_MOTION_DOT":3.62e-6,"MEAN_MOTION_DDOT":0},{"OBJECT_NAME":"ONEWEB-0176","OBJECT_ID":"2021-031A","EPOCH":"2025-09-19T23:03:37.499616","MEAN_MOTION":13.14503997,"ECCENTRICITY":0.00017849,"INCLINATION":87.9083,"RA_OF_ASC_NODE":343.5082,"ARG_OF_PERICENTER":104.7266,"MEAN_ANOMALY":255.4062,"EPHEMERIS_TYPE":0,"CLASSIFICATION_TYPE":"U","NORAD_CAT_ID":48210,"ELEMENT_SET_NO":999,"REV_AT_EPOCH":21281,"BSTAR":-0.00049026209,"MEAN_MOTION_DOT":-1.69e-6,"MEAN_MOTION_DDOT":0},{"OBJECT_NAME":"ONEWEB-0184","OBJECT_ID":"2021-031B","EPOCH":"2025-09-20T03:53:38.072544","MEAN_MOTION":13.14502698,"ECCENTRICITY":0.00013468,"INCLINATION":87.9087,"RA_OF_ASC_NODE":343.4413,"ARG_OF_PERICENTER":127.2508,"MEAN_ANOMALY":232.8745,"EPHEMERIS_TYPE":0,"CLASSIFICATION_TYPE":"U","NORAD_CAT_ID":48211,"ELEMENT_SET_NO":999,"REV_AT_EPOCH":21281,"BSTAR":-0.00021337031,"MEAN_MOTION_DOT":-6.6e-7,"MEAN_MOTION_DDOT":0},{"OBJECT_NAME":"ONEWEB-0179","OBJECT_ID":"2021-031C","EPOCH":"2025-09-19T18:03:20.163744","MEAN_MOTION":13.14502898,"ECCENTRICITY":0.00019067,"INCLINATION":87.9088,"RA_OF_ASC_NODE":343.5366,"ARG_OF_PERICENTER":103.0823,"MEAN_ANOMALY":257.052,"EPHEMERIS_TYPE":0,"CLASSIFICATION_TYPE":"U","NORAD_CAT_ID":48212,"ELEMENT_SET_NO":999,"REV_AT_EPOCH":21280,"BSTAR":0.00067493305,"MEAN_MOTION_DOT":2.63e-6,"MEAN_MOTION_DDOT":0},{"OBJECT_NAME":"ONEWEB-0180","OBJECT_ID":"2021-031D","EPOCH":"2025-09-19T18:50:08.827296","MEAN_MOTION":13.14503686,"ECCENTRICITY":0.00019483,"INCLINATION":87.9088,"RA_OF_ASC_NODE":343.5218,"ARG_OF_PERICENTER":109.1109,"MEAN_ANOMALY":251.0231,"EPHEMERIS_TYPE":0,"CLASSIFICATION_TYPE":"U","NORAD_CAT_ID":48213,"ELEMENT_SET_NO":999,"REV_AT_EPOCH":21269,"BSTAR":-0.00044445744,"MEAN_MOTION_DOT":-1.52e-6,"MEAN_MOTION_DDOT":0}]
