ONEWEB-0151             
1 48066U 21025AA  25263.02287204 -.00000175  00000+0 -51407-3 0  9991
2 48066  87.9044  13.8898 0001644 104.4262 255.7050 13.13471340218124
ONEWEB-0170             
1 48067U 21025AB  25263.03134255 -.00000293  00000+0 -83804-3 0  9997
2 48067  87.9043  13.8947 0001232  99.5019 260.6249 13.13469468218084
ONEWEB-0168             
1 48068U 21025AC  25263.01609769 -.00000252  00000+0 -72564-3 0  9999
2 48068  87.9045  13.8790 0001808 104.8517 255.2812 13.13469432218093
ONEWEB-0173             
1 48069U 21025AD  25263.00763622  .00000133  00000+0  32820-3 0  9995
2 48069  87.9047  13.8890 0001835 114.8762 245.2558 13.13470993218337
ONEWEB-0171             
1 48070U 21025AE  25263.04488442 -.00000225  00000+0 -65080-3 0  9993
2 48070  87.9033  13.9170 0001681 102.8852 257.2465 13.13471668218152
ONEWEB-0172             
1 48071U 21025AF  25263.02456447 -.00000192  00000+0 -56145-3 0  9997
2 48071  87.9044  13.8901 0001695 106.0740 254.0576 13.13470582219044
ONEWEB-0174             
1 48072U 21025AG  25262.85357915 -.00000198  00000+0 -57690-3 0  9990
2 48072  87.9041  13.9356 0001893 100.2275 259.9068 13.13468963218348
ONEWEB-0175             
1 48073U 21025AH  25263.03641553 -.00000256  00000+0 -73522-3 0  9993
2 48073  87.9042  13.8641 0001458 106.6390 253.4900 13.13471263218027
ONEWEB-0177             
1 48074U 21025AJ  25263.04826108 -.00000023  00000+0 -98486-4 0  9995
2 48074  87.9046  13.8789 0001938 104.7705 255.3639 13.13471892218216
ONEWEB-0178             
1 48075U 21025AK  25263.06701943  .00000336  00000+0  88544-3 0  9995
2 48075  87.9048  13.9212 0001678 109.6989 250.4322 13.13470627218265
ONEWEB-0108             
1 48076U 21025AL  25263.02625957 -.00000210  00000+0 -60923-3 0  9996
2 48076  87.9040  13.8752 0001805  92.9431 267.1905 13.13471096218188
ONEWEB-0169             
1 48077U 21025AM  25263.05842055  .00000362  00000+0  95528-3 0  9995
2 48077  87.9045  13.8921 0001811  94.1124 266.0212 13.13471977216840
ONEWEB-0176             
1 48210U 21031A   25262.96085069 -.00000169  00000+0 -49026-3 0  9993
2 48210  87.9083 343.5082 0001784 104.7266 255.4062 13.14503997212813
ONEWEB-0184             
1 48211U 21031B   25263.16224621 -.00000066  00000+0 -21337-3 0  9997
2 48211  87.9087 343.4413 0001346 127.2508 232.8745 13.14502698212812
ONEWEB-0179             
1 48212U 21031C   25262.75231671  .00000263  00000+0  67493-3 0  9995
2 48212  87.9088 343.5366 0001906 103.0823 257.0520 13.14502898212807
ONEWEB-0180             
1 48213U 21031D   25262.78482439 -.00000152  00000+0 -44446-3 0  9991
2 48213  87.9088 343.5218 0001948 109.1109 251.0231 13.14503686212690
